     2.100          NAVIGATION                              RINEX VERSION / TYPE
fic2rin                                 08/18/2009 01:25:31 PGM / RUN BY / DATE
                                                            END OF HEADER
14 09  8 17 22  0  0.0 -.637830235064D-04  .545696821064D-11  .000000000000D+00
     .570000000000D+02  .134718750000D+03  .357657755024D-08  .265815885318D+01
     .707991421223D-05  .478858477436D-02  .778771936893D-05  .515363842773D+04
     .165600000000D+06  .111758708954D-07  .234911764446D+00 -.689178705215D-07
     .988324708903D+00  .241500000000D+03 -.216626120125D+01 -.766531929132D-08
     .326442169055D-09  .100000000000D+01  .154500000000D+04  .000000000000D+00
     .240000000000D+01  .000000000000D+00 -.931322574615D-08  .570000000000D+02
     .158406000000D+06  .400000000000D+01
15 09  8 17 22  0  0.0 -.314702279866D-03 -.181898940355D-11  .000000000000D+00
     .460000000000D+02  .159562500000D+03  .437803950578D-08  .285827867332D+01
     .817701220512D-05  .157560140360D-02  .709295272827D-05  .515365325165D+04
     .165600000000D+06  .484287738800D-07  .179886220663D+00 -.409781932831D-07
     .956252048422D+00  .239156250000D+03 -.506994482287D+00 -.812319550656D-08
     .236081262304D-09  .100000000000D+01  .154500000000D+04  .000000000000D+00
     .240000000000D+01  .000000000000D+00 -.977888703346D-08  .460000000000D+02
     .158406000000D+06  .400000000000D+01
16 09  8 17 22  0  0.0  .219615176320D-04 -.375166564481D-11  .000000000000D+00
     .380000000000D+02 -.132343750000D+03  .420517516242D-08 -.200265525461D+01
    -.699236989021D-05  .531566143036D-02  .931508839130D-05  .515361140060D+04
     .165600000000D+06 -.111758708954D-06  .231278745642D+01 -.856816768646D-07
     .969304282523D+00  .209656250000D+03 -.288436323559D+00 -.788639992878D-08
     .214294640518D-10  .100000000000D+01  .154500000000D+04  .000000000000D+00
     .240000000000D+01  .000000000000D+00 -.977888703346D-08  .380000000000D+02
     .158406000000D+06  .400000000000D+01
17 09  8 17 22  0  0.0  .780681148171D-04  .272848410532D-11  .000000000000D+00
     .570000000000D+02  .168750000000D+01  .465412243431D-08 -.312543083058D+01
     .782310962677D-07  .460895826109D-02  .102929770947D-04  .515371945190D+04
     .165600000000D+06 -.987201929092D-07 -.292823911998D+01 -.409781932831D-07
     .960210378514D+00  .179687500000D+03 -.263724306575D+01 -.782889753358D-08
     .594310469702D-09  .100000000000D+01  .154500000000D+04  .000000000000D+00
     .240000000000D+01  .000000000000D+00 -.102445483208D-07  .570000000000D+02
     .158406000000D+06  .400000000000D+01
18 09  8 17 22  0  0.0  .587431713939D-05  .284217094304D-11  .000000000000D+00
     .390000000000D+02  .197812500000D+02  .461626371448D-08 -.179686387370D+01
     .100396573544D-05  .108390938258D-01  .113490968943D-04  .515361994553D+04
     .165600000000D+06  .782310962677D-07 -.823957737650D+00 -.234693288803D-06
     .941109409716D+00  .152250000000D+03 -.239284206855D+01 -.781353975101D-08
    -.635383609135D-09  .100000000000D+01  .154500000000D+04  .000000000000D+00
     .240000000000D+01  .000000000000D+00 -.107102096081D-07  .390000000000D+02
     .158406000000D+06  .400000000000D+01
19 09  8 17 22  0  0.0  .147251412272D-04 -.159161572810D-11  .000000000000D+00
     .520000000000D+02  .110625000000D+02  .479734268572D-08  .252692391746D+01
     .735744833946D-06  .580932176672D-02  .102110207081D-04  .515364370346D+04
     .165600000000D+06 -.968575477600D-07 -.287244958185D+01  .201165676117D-06
     .957876184462D+00  .180781250000D+03 -.289033865615D+00 -.797997525514D-08
     .610025410007D-09  .100000000000D+01  .154500000000D+04  .000000000000D+00
     .240000000000D+01  .000000000000D+00 -.144354999065D-07  .520000000000D+02
     .158406000000D+06  .400000000000D+01
20 09  8 17 22  0  0.0  .745174475014D-04 -.909494701773D-12  .000000000000D+00
     .840000000000D+02  .144687500000D+02  .474126892145D-08 -.161146694304D+01
     .623986124992D-06  .384518760256D-02  .103898346424D-04  .515379325485D+04
     .165600000000D+06  .134110450745D-06 -.877829160491D+00  .130385160446D-06
     .940760556419D+00  .170656250000D+03  .133704348166D+01 -.802569144512D-08
    -.730744724165D-09  .100000000000D+01  .154500000000D+04  .000000000000D+00
     .240000000000D+01  .000000000000D+00 -.651925802231D-08  .840000000000D+02
     .158406000000D+06  .400000000000D+01
21 09  8 17 22  0  0.0 -.373926013708D-05 -.227373675443D-11  .000000000000D+00
     .400000000000D+02  .243750000000D+01  .579166981772D-08 -.540342071485D+00
     .633299350739D-07  .155207257485D-01  .483915209770D-05  .515374934006D+04
     .165600000000D+06  .160187482834D-06 -.188249205010D+01  .229105353355D-06
     .933287711934D+00  .269812500000D+03 -.256524594015D+01 -.878643741896D-08
    -.268582616115D-09  .100000000000D+01  .154500000000D+04  .000000000000D+00
     .240000000000D+01  .000000000000D+00 -.121071934700D-07  .400000000000D+02
     .158406000000D+06  .400000000000D+01
22 09  8 17 22  0  0.0  .193036627024D-03 -.795807864051D-12  .000000000000D+00
     .106000000000D+03  .175625000000D+02  .465197948790D-08 -.281856049720D+01
     .996515154839D-06  .527530116960D-02  .114105641842D-04  .515366060638D+04
     .165600000000D+06 -.894069671631D-07 -.818444261271D+00 -.167638063431D-07
     .938781373087D+00  .147593750000D+03 -.189776549709D+01 -.785104131310D-08
    -.647884129832D-09  .100000000000D+01  .154500000000D+04  .000000000000D+00
     .240000000000D+01  .000000000000D+00 -.176951289177D-07  .106000000000D+03
     .158406000000D+06  .400000000000D+01
23 09  8 17 22  0  0.0  .389423221350D-03 -.341060513165D-12  .000000000000D+00
     .580000000000D+02  .137625000000D+03  .397337979293D-08  .200807745075D+01
     .727735459805D-05  .642921729013D-02  .732019543648D-05  .515358842850D+04
     .165600000000D+06 -.558793544769D-07  .200981357463D+00  .875443220139D-07
     .970282268128D+00  .243562500000D+03  .294528010555D+01 -.787782814316D-08
     .121076471892D-09  .100000000000D+01  .154500000000D+04  .000000000000D+00
     .240000000000D+01  .000000000000D+00 -.200234353542D-07  .580000000000D+02
     .158406000000D+06  .400000000000D+01
24 09  8 17 22  0  0.0  .213178340346D-03  .306954461848D-11  .000000000000D+00
     .880000000000D+02 -.231250000000D+01  .535200864693D-08 -.188830471956D+01
    -.216066837311D-06  .655780965462D-02  .522471964359D-05  .515365847397D+04
     .165600000000D+06 -.178813934326D-06 -.184893680261D+01 -.521540641785D-07
     .949897707212D+00  .271781250000D+03 -.641916141264D+00 -.838499212572D-08
    -.297869550320D-09  .100000000000D+01  .154500000000D+04  .000000000000D+00
     .340000000000D+01  .000000000000D+00 -.139698386192D-08  .880000000000D+02
     .158406000000D+06  .400000000000D+01
25 09  8 17 22  0  0.0  .557145569474D-03  .159161572810D-10  .000000000000D+00
     .280000000000D+02 -.993750000000D+01  .458519099161D-08 -.137275933920D+01
    -.251457095146D-06  .112543724244D-01  .720843672752D-06  .515364297676D+04
     .165600000000D+06 -.214204192162D-06  .114833144551D+01  .763684511185D-07
     .970366722389D+00  .374031250000D+03 -.121060964559D+01 -.853214111221D-08
     .178578867098D-09  .100000000000D+01  .154500000000D+04  .000000000000D+00
     .340000000000D+01  .000000000000D+00 -.745058059692D-08  .280000000000D+02
     .158406000000D+06  .400000000000D+01
26 09  8 17 22  0  0.0  .643930397928D-04 -.341060513165D-12  .000000000000D+00
     .430000000000D+02  .131937500000D+03  .360229290710D-08 -.519390221659D-01
     .716932117939D-05  .201798647176D-01  .752136111259D-05  .515491989517D+04
     .165600000000D+06 -.124797224998D-06  .252387353723D+00  .301748514175D-06
     .992681210186D+00  .254562500000D+03  .103226291799D+01 -.805462122159D-08
     .352514683652D-09  .100000000000D+01  .154500000000D+04  .000000000000D+00
     .240000000000D+01  .000000000000D+00 -.651925802231D-08  .430000000000D+02
     .158406000000D+06  .400000000000D+01
27 09  8 17 22  0  0.0  .750911422074D-04  .318323145621D-11  .000000000000D+00
     .420000000000D+02 -.134375000000D+02  .444304221340D-08  .278649629385D+01
    -.879168510437D-06  .213269363157D-01 -.953674316406D-06  .515375367737D+04
     .165600000000D+06  .253319740295D-06  .118500805986D+01 -.856816768646D-07
     .975106063482D+00  .405843750000D+03 -.155763718557D+01 -.813426739632D-08
     .171435712414D-10  .100000000000D+01  .154500000000D+04  .000000000000D+00
     .340000000000D+01  .000000000000D+00 -.419095158577D-08  .420000000000D+02
     .158406000000D+06  .400000000000D+01
28 09  8 17 22  0  0.0 -.262153334916D-04  .000000000000D+00  .000000000000D+00
     .102000000000D+03 -.149968750000D+03  .407302680077D-08 -.258123912674D+01
    -.789389014244D-05  .150036303094D-01  .102072954178D-04  .515366301346D+04
     .165600000000D+06  .230967998505D-06  .232087205083D+01 -.577419996262D-07
     .967518922670D+00  .179281250000D+03 -.201962116176D+01 -.765746182116D-08
     .106433004790D-09  .100000000000D+01  .154500000000D+04  .000000000000D+00
     .340000000000D+01  .000000000000D+00 -.107102096081D-07  .102000000000D+03
     .158406000000D+06  .400000000000D+01
29 09  8 17 22  0  0.0  .495440326631D-04  .341060513165D-11  .000000000000D+00
     .150000000000D+02 -.821875000000D+01  .471055335631D-08 -.539474618118D+00
    -.337138772011D-06  .322006829083D-02  .102650374174D-04  .515362787056D+04
     .165600000000D+06  .707805156708D-07 -.292003717906D+01 -.968575477600D-07
     .960455869334D+00  .180593750000D+03 -.128307190013D+01 -.800961934708D-08
     .608239621336D-09  .100000000000D+01  .154500000000D+04  .000000000000D+00
     .240000000000D+01  .000000000000D+00 -.884756445885D-08  .150000000000D+02
     .158406000000D+06  .400000000000D+01
